CCSDS_OMM_VERS = 2.0
CREATION_DATE  = 
ORIGINATOR     = 

OBJECT_NAME    = SL-14 R/B
OBJECT_ID      = 1991-042B
CENTER_NAME    = EARTH
REF_FRAME      = TEME
TIME_SYSTEM    = UTC
MEAN_ELEMENT_THEORY = SGP/SGP4

EPOCH          = 2026-02-19T10:59:42.851040
MEAN_MOTION    = 14.81809948
ECCENTRICITY   = .0015752
INCLINATION    = 82.4895
RA_OF_ASC_NODE = 237.2814
ARG_OF_PERICENTER = 303.9724
MEAN_ANOMALY   = 55.9993

EPHEMERIS_TYPE = 0
CLASSIFICATION_TYPE = U
NORAD_CAT_ID   = 21423
ELEMENT_SET_NO = 999
REV_AT_EPOCH   = 85037
BSTAR          = .45327E-4
MEAN_MOTION_DOT = .382E-5
MEAN_MOTION_DDOT = 0

CCSDS_OMM_VERS = 2.0
CREATION_DATE  = 
ORIGINATOR     = 

OBJECT_NAME    = ERS-1
OBJECT_ID      = 1991-050A
CENTER_NAME    = EARTH
REF_FRAME      = TEME
TIME_SYSTEM    = UTC
MEAN_ELEMENT_THEORY = SGP/SGP4

EPOCH          = 2026-02-19T11:38:54.975264
MEAN_MOTION    = 14.39433875
ECCENTRICITY   = .0030895
INCLINATION    = 98.7893
RA_OF_ASC_NODE = 68.2621
ARG_OF_PERICENTER = 255.8162
MEAN_ANOMALY   = 103.9592

EPHEMERIS_TYPE = 0
CLASSIFICATION_TYPE = U
NORAD_CAT_ID   = 21574
ELEMENT_SET_NO = 999
REV_AT_EPOCH   = 81311
BSTAR          = .99927E-4
MEAN_MOTION_DOT = .266E-5
MEAN_MOTION_DDOT = 0

CCSDS_OMM_VERS = 2.0
CREATION_DATE  = 
ORIGINATOR     = 

OBJECT_NAME    = ARIANE 40 R/B
OBJECT_ID      = 1991-050F
CENTER_NAME    = EARTH
REF_FRAME      = TEME
TIME_SYSTEM    = UTC
MEAN_ELEMENT_THEORY = SGP/SGP4

EPOCH          = 2026-02-19T03:55:28.739712
MEAN_MOTION    = 14.42879249
ECCENTRICITY   = .0004218
INCLINATION    = 98.2054
RA_OF_ASC_NODE = 103.0916
ARG_OF_PERICENTER = 121.7169
MEAN_ANOMALY   = 238.4433

EPHEMERIS_TYPE = 0
CLASSIFICATION_TYPE = U
NORAD_CAT_ID   = 21610
ELEMENT_SET_NO = 999
REV_AT_EPOCH   = 81632
BSTAR          = .91627E-4
MEAN_MOTION_DOT = .264E-5
MEAN_MOTION_DDOT = 0

CCSDS_OMM_VERS = 2.0
CREATION_DATE  = 
ORIGINATOR     = 

OBJECT_NAME    = INTERCOSMOS 25
OBJECT_ID      = 1991-086A
CENTER_NAME    = EARTH
REF_FRAME      = TEME
TIME_SYSTEM    = UTC
MEAN_ELEMENT_THEORY = SGP/SGP4

EPOCH          = 2026-02-19T03:56:40.302240
MEAN_MOTION    = 12.11945224
ECCENTRICITY   = .14869976
INCLINATION    = 82.6082
RA_OF_ASC_NODE = 321.2028
ARG_OF_PERICENTER = 156.8389
MEAN_ANOMALY   = 210.7496

EPHEMERIS_TYPE = 0
CLASSIFICATION_TYPE = U
NORAD_CAT_ID   = 21819
ELEMENT_SET_NO = 999
REV_AT_EPOCH   = 49444
BSTAR          = .14952426E-3
MEAN_MOTION_DOT = .79E-5
MEAN_MOTION_DDOT = 0

CCSDS_OMM_VERS = 2.0
CREATION_DATE  = 
ORIGINATOR     = 

OBJECT_NAME    = SL-8 R/B
OBJECT_ID      = 1992-008B
CENTER_NAME    = EARTH
REF_FRAME      = TEME
TIME_SYSTEM    = UTC
MEAN_ELEMENT_THEORY = SGP/SGP4

EPOCH          = 2026-02-19T03:00:18.513792
MEAN_MOTION    = 13.75970104
ECCENTRICITY   = .00344941
INCLINATION    = 82.9246
RA_OF_ASC_NODE = 281.5904
ARG_OF_PERICENTER = 184.4446
MEAN_ANOMALY   = 330.5582

EPHEMERIS_TYPE = 0
CLASSIFICATION_TYPE = U
NORAD_CAT_ID   = 21876
ELEMENT_SET_NO = 999
REV_AT_EPOCH   = 70686
BSTAR          = .30537069E-4
MEAN_MOTION_DOT = .45E-6
MEAN_MOTION_DDOT = 0

CCSDS_OMM_VERS = 2.0
CREATION_DATE  = 
ORIGINATOR     = 

OBJECT_NAME    = SL-8 R/B
OBJECT_ID      = 1992-020B
CENTER_NAME    = EARTH
REF_FRAME      = TEME
TIME_SYSTEM    = UTC
MEAN_ELEMENT_THEORY = SGP/SGP4

EPOCH          = 2026-02-19T10:27:28.838016
MEAN_MOTION    = 13.75547019
ECCENTRICITY   = .0028566
INCLINATION    = 82.9340
RA_OF_ASC_NODE = 167.3099
ARG_OF_PERICENTER = 351.3592
MEAN_ANOMALY   = 75.1628

EPHEMERIS_TYPE = 0
CLASSIFICATION_TYPE = U
NORAD_CAT_ID   = 21938
ELEMENT_SET_NO = 999
REV_AT_EPOCH   = 69862
BSTAR          = .81357E-4
MEAN_MOTION_DOT = .94E-6
MEAN_MOTION_DDOT = 0

CCSDS_OMM_VERS = 2.0
CREATION_DATE  = 
ORIGINATOR     = 

OBJECT_NAME    = USA 81
OBJECT_ID      = 1992-023A
CENTER_NAME    = EARTH
REF_FRAME      = TEME
TIME_SYSTEM    = UTC
MEAN_ELEMENT_THEORY = SGP/SGP4

EPOCH          = 2026-02-19T08:32:41.656416
MEAN_MOTION    = 14.32361152
ECCENTRICITY   = .0002732
INCLINATION    = 85.0115
RA_OF_ASC_NODE = 142.0140
ARG_OF_PERICENTER = 94.3210
MEAN_ANOMALY   = 265.8295

EPHEMERIS_TYPE = 0
CLASSIFICATION_TYPE = U
NORAD_CAT_ID   = 21949
ELEMENT_SET_NO = 999
REV_AT_EPOCH   = 9216
BSTAR          = .64159E-4
MEAN_MOTION_DOT = .193E-5
MEAN_MOTION_DDOT = 0

CCSDS_OMM_VERS = 2.0
CREATION_DATE  = 
ORIGINATOR     = 

OBJECT_NAME    = COSMOS 2219
OBJECT_ID      = 1992-076A
CENTER_NAME    = EARTH
REF_FRAME      = TEME
TIME_SYSTEM    = UTC
MEAN_ELEMENT_THEORY = SGP/SGP4

EPOCH          = 2026-02-19T09:53:16.082016
MEAN_MOTION    = 14.14079752
ECCENTRICITY   = .0019854
INCLINATION    = 71.0587
RA_OF_ASC_NODE = 56.2779
ARG_OF_PERICENTER = 231.5978
MEAN_ANOMALY   = 128.3362

EPHEMERIS_TYPE = 0
CLASSIFICATION_TYPE = U
NORAD_CAT_ID   = 22219
ELEMENT_SET_NO = 999
REV_AT_EPOCH   = 71579
BSTAR          = .16096E-3
MEAN_MOTION_DOT = .26E-5
MEAN_MOTION_DDOT = 0

CCSDS_OMM_VERS = 2.0
CREATION_DATE  = 
ORIGINATOR     = 

OBJECT_NAME    = SL-16 R/B
OBJECT_ID      = 1992-076B
CENTER_NAME    = EARTH
REF_FRAME      = TEME
TIME_SYSTEM    = UTC
MEAN_ELEMENT_THEORY = SGP/SGP4

EPOCH          = 2026-02-19T11:25:05.157696
MEAN_MOTION    = 14.16854671
ECCENTRICITY   = .0011131
INCLINATION    = 70.9976
RA_OF_ASC_NODE = 226.7398
ARG_OF_PERICENTER = 129.7591
MEAN_ANOMALY   = 260.4191

EPHEMERIS_TYPE = 0
CLASSIFICATION_TYPE = U
NORAD_CAT_ID   = 22220
ELEMENT_SET_NO = 999
REV_AT_EPOCH   = 71925
BSTAR          = -.10399E-4
MEAN_MOTION_DOT = -.69E-6
MEAN_MOTION_DDOT = 0

CCSDS_OMM_VERS = 2.0
CREATION_DATE  = 
ORIGINATOR     = 

OBJECT_NAME    = COSMOS 2221
OBJECT_ID      = 1992-080A
CENTER_NAME    = EARTH
REF_FRAME      = TEME
TIME_SYSTEM    = UTC
MEAN_ELEMENT_THEORY = SGP/SGP4

EPOCH          = 2026-02-19T02:40:53.377824
MEAN_MOTION    = 14.96125061
ECCENTRICITY   = .00128338
INCLINATION    = 82.5041
RA_OF_ASC_NODE = 296.8757
ARG_OF_PERICENTER = 254.5775
MEAN_ANOMALY   = 105.4029

EPHEMERIS_TYPE = 0
CLASSIFICATION_TYPE = U
NORAD_CAT_ID   = 22236
ELEMENT_SET_NO = 999
REV_AT_EPOCH   = 77801
BSTAR          = .14428953E-3
MEAN_MOTION_DOT = .1651E-4
MEAN_MOTION_DDOT = 0

CCSDS_OMM_VERS = 2.0
CREATION_DATE  = 
ORIGINATOR     = 

OBJECT_NAME    = SL-16 R/B
OBJECT_ID      = 1992-093B
CENTER_NAME    = EARTH
REF_FRAME      = TEME
TIME_SYSTEM    = UTC
MEAN_ELEMENT_THEORY = SGP/SGP4

EPOCH          = 2026-02-19T10:27:45.582336
MEAN_MOTION    = 14.15445633
ECCENTRICITY   = .0005594
INCLINATION    = 71.0214
RA_OF_ASC_NODE = 42.5849
ARG_OF_PERICENTER = 313.4038
MEAN_ANOMALY   = 46.6619

EPHEMERIS_TYPE = 0
CLASSIFICATION_TYPE = U
NORAD_CAT_ID   = 22285
ELEMENT_SET_NO = 999
REV_AT_EPOCH   = 71057
BSTAR          = .1813E-3
MEAN_MOTION_DOT = .306E-5
MEAN_MOTION_DDOT = 0

CCSDS_OMM_VERS = 2.0
CREATION_DATE  = 
ORIGINATOR     = 

OBJECT_NAME    = COSMOS 2228
OBJECT_ID      = 1992-094A
CENTER_NAME    = EARTH
REF_FRAME      = TEME
TIME_SYSTEM    = UTC
MEAN_ELEMENT_THEORY = SGP/SGP4

EPOCH          = 2026-02-19T11:23:13.404480
MEAN_MOTION    = 14.97097962
ECCENTRICITY   = .0018224
INCLINATION    = 82.5146
RA_OF_ASC_NODE = 254.7542
ARG_OF_PERICENTER = 7.8848
MEAN_ANOMALY   = 352.2657

EPHEMERIS_TYPE = 0
CLASSIFICATION_TYPE = U
NORAD_CAT_ID   = 22286
ELEMENT_SET_NO = 999
REV_AT_EPOCH   = 77333
BSTAR          = .14913E-3
MEAN_MOTION_DOT = .1751E-4
MEAN_MOTION_DDOT = 0

