SL-14 R/B               
1 21423U 91042B   26050.45813485  .00000382  00000+0  45327-4 0  9996
2 21423  82.4895 237.2814 0015752 303.9724  55.9993 14.81809948850370
ERS-1                   
1 21574U 91050A   26050.48535851  .00000266  00000+0  99927-4 0  9999
2 21574  98.7893  68.2621 0030895 255.8162 103.9592 14.39433875813114
ARIANE 40 R/B           
1 21610U 91050F   26050.16352708  .00000264  00000+0  91627-4 0  9990
2 21610  98.2054 103.0916 0004218 121.7169 238.4433 14.42879249816329
INTERCOSMOS 25          
1 21819U 91086A   26050.16435535  .00000790  00000+0  14952-3 0  9999
2 21819  82.6082 321.2028 1486997 156.8389 210.7496 12.11945224494446
SL-8 R/B                
1 21876U 92008B   26050.12521428  .00000045  00000+0  30537-4 0  9991
2 21876  82.9246 281.5904 0034494 184.4446 330.5582 13.75970104706861
SL-8 R/B                
1 21938U 92020B   26050.43575044  .00000094  00000+0  81357-4 0  9991
2 21938  82.9340 167.3099 0028566 351.3592  75.1628 13.75547019698623
USA 81                  
1 21949U 92023A   26050.35603769  .00000193  00000+0  64159-4 0  9994
2 21949  85.0115 142.0140 0002732  94.3210 265.8295 14.32361152 92165
COSMOS 2219             
1 22219U 92076A   26050.41199169  .00000260  00000+0  16096-3 0  9995
2 22219  71.0587  56.2779 0019854 231.5978 128.3362 14.14079752715798
SL-16 R/B               
1 22220U 92076B   26050.47575414 -.00000069  00000+0 -10399-4 0  9994
2 22220  70.9976 226.7398 0011131 129.7591 260.4191 14.16854671719256
COSMOS 2221             
1 22236U 92080A   26050.11172891  .00001651  00000+0  14429-3 0  9992
2 22236  82.5041 296.8757 0012833 254.5775 105.4029 14.96125061778012
SL-16 R/B               
1 22285U 92093B   26050.43594424  .00000306  00000+0  18130-3 0  9994
2 22285  71.0214  42.5849 0005594 313.4038  46.6619 14.15445633710571
COSMOS 2228             
1 22286U 92094A   26050.47446070  .00001751  00000+0  14913-3 0  9993
2 22286  82.5146 254.7542 0018224   7.8848 352.2657 14.97097962773336
